0 SL-16 DEB
1 22382U 92093BX  13281.31802206  .00000370  00000-0  32375-3 0   250
2 22382 070.8653 149.3931 0165972 065.4776 050.9148 13.85962879 46525
0 SL-16 DEB
1 22382U 92093BX  13283.69814912  .00000421  00000-0  36305-3 0   265
2 22382 070.8650 144.5958 0166106 062.0565 046.5157 13.85966413 46852
0 SL-16 DEB
1 22382U 92093BX  13285.79494498  .00000422  00000-0  36364-3 0   278
2 22382 070.8650 140.3697 0166215 059.0474 068.4548 13.85968047 47147
0 SL-16 DEB
1 22382U 92093BX  13288.02097346  .00000575  00000-0  48312-3 0   284
2 22382 070.8647 135.8831 0166316 055.8453 015.2226 13.85971157 47458
0 SL-16 DEB
1 22382U 92093BX  13290.26531693  .00000473  00000-0  40385-3 0   291
2 22382 070.8647 131.3592 0166411 052.6134 053.4022 13.85974072 47761
0 SL-16 DEB
1 22382U 92093BX  13292.42392059  .00000491  00000-0  41774-3 0   307
2 22382 070.8649 127.0081 0166495 049.5108 023.7991 13.85976402 48064
0 SL-16 DEB
1 22382U 92093BX  13294.67112222  .00000584  00000-0  49039-3 0   314
2 22382 070.8650 122.4782 0166569 046.2771 076.2828 13.85978830 48378
